OBJECT_NAME,OBJECT_ID,EPOCH,MEAN_MOTION,ECCENTRICITY,INCLINATION,RA_OF_ASC_NODE,ARG_OF_PERICENTER,MEAN_ANOMALY,EPHEMERIS_TYPE,CLASSIFICATION_TYPE,NORAD_CAT_ID,ELEMENT_SET_NO,REV_AT_EPOCH,BSTAR,MEAN_MOTION_DOT,MEAN_MOTION_DDOT
STARLINK-1826,2020-073BF,2026-06-19T08:00:01.999872,15.82847102,.0006119,53.0412,37.3763,179.1025,290.1221,0,U,46723,999,601,.3979604E-3,.86354E-3,0
STARLINK-1828,2020-073BH,2026-06-19T02:25:39.258912,15.70538193,.0006,53.0470,100.4680,44.0999,316.0496,0,U,46725,999,31306,.57694495E-3,.72453E-3,0
STARLINK-1830,2020-073BK,2026-06-18T22:18:17.058240,15.78535166,.0003103,53.0353,45.9638,232.4545,127.6193,0,U,46727,999,31381,.61735E-3,.110311E-2,0
STARLINK-1892,2020-074E,2026-06-19T05:07:54.715872,15.70790139,.00105993,53.0370,158.1700,29.3173,330.8436,0,U,46743,999,31293,.92493442E-3,.118654E-2,0
STARLINK-1905,2020-074H,2026-06-19T08:00:01.999872,15.96854528,.00021011,53.0318,136.7343,177.0697,221.4162,0,U,46746,999,596,.98719876E-3,.431534E-2,.87480162E-4
STARLINK-1922,2020-074Q,2026-06-19T07:06:26.944416,16.04189955,.000179,53.0318,135.4117,131.8962,228.2222,0,U,46753,999,31325,.17346372E-2,.1151678E-1,.7375011E-3
STARLINK-1928,2020-074V,2026-06-19T06:50:40.568064,16.12871749,.00021599,53.0292,133.8642,221.9051,138.1819,0,U,46758,999,31327,.85266436E-3,.991568E-2,.6192973E-3
STARLINK-1835,2020-074AV,2026-06-19T02:21:04.811904,15.78836108,.00012725,53.0392,134.8897,112.3594,247.7562,0,U,46782,999,31324,.57740362E-3,.104453E-2,0
STARLINK-1882,2020-074AX,2026-06-19T08:00:01.999872,15.95783130,.00035812,53.0390,128.7795,145.6339,0.4860,0,U,46784,999,596,.10331747E-2,.42608E-2,.84406551E-4
STARLINK-1893,2020-074AZ,2026-06-19T04:15:12.687552,15.72150855,.00024063,53.0427,130.0783,128.6713,231.4520,0,U,46786,999,31332,.63824668E-3,.85951E-3,0
STARLINK-1931,2020-074BD,2026-06-18T23:02:16.516896,16.07275382,.00028539,53.0295,135.6035,198.6253,161.4675,0,U,46790,999,31321,.86896212E-3,.702519E-2,.26316487E-3
STARLINK-1942,2020-074BH,2026-06-19T06:21:57.189600,15.71948097,.00018984,53.0375,161.4560,88.5513,271.5721,0,U,46794,999,31289,.71177724E-3,.95203E-3,0
STARLINK-1944,2020-074BK,2026-06-19T08:00:01.999872,15.97928247,.00026264,53.0314,122.8790,202.1524,311.0882,0,U,46796,999,582,.95695272E-3,.444092E-2,.93393285E-4
COSMOS 2547 [GLONASS-K],2020-075A,2026-06-18T19:43:14.211264,2.13100016,.00093281,64.5997,192.4209,239.7819,120.1725,0,U,46805,999,4394,0,.56E-6,0
YAOGAN-30 08A,2020-076A,2026-06-19T04:10:16.142880,15.02702392,.00008566,34.9941,79.1212,279.4962,80.5649,0,U,46807,999,30841,.15405831E-3,.2069E-4,0
YAOGAN-30 08B,2020-076B,2026-06-19T05:13:32.639232,15.02719511,.00009418,34.9945,78.6089,323.1978,36.8666,0,U,46808,999,30853,.15475426E-3,.208E-4,0
YAOGAN-30 08C,2020-076C,2026-06-19T04:43:03.863136,15.02687453,.00053295,34.9962,78.6309,84.2893,275.8423,0,U,46809,999,30844,.14489084E-3,.1944E-4,0
TIANQI-6,2020-076D,2026-06-18T23:49:41.268000,15.07192437,.00102164,35.0001,37.3823,191.0291,169.0196,0,U,46810,999,30885,.18226408E-3,.2774E-4,0
CE-SAT IIB,2020-077F,2026-06-18T16:05:09.288960,16.03075584,.00051848,97.1880,252.6781,161.3353,198.8118,0,U,46818,999,31552,.38455812E-3,.232456E-2,.25321016E-4
NAVSTAR 80 (USA 309),2020-078A,2026-06-19T07:11:35.539296,2.00564859,.00736058,53.9793,210.6926,207.3499,180.1928,0,U,46826,999,4155,0,.26E-6,0
RISAT-2BR2,2020-081A,2026-06-19T06:38:15.758592,15.01633261,.00108784,36.8973,211.8710,182.6482,177.4203,0,U,46905,999,30778,.12939842E-3,.1635E-4,0
KSM1-C,2020-081B,2026-06-19T02:55:19.161120,15.26765276,.00033126,36.8962,46.9985,260.0445,99.9930,0,U,46906,999,30946,.25287768E-3,.6719E-4,0
KSM1-D,2020-081C,2026-06-19T03:01:27.802272,15.24742293,.00051289,36.8969,56.0203,274.2977,85.7186,0,U,46907,999,30939,.23863743E-3,.5956E-4,0
KSM1-A,2020-081H,2026-06-19T03:01:23.124576,15.25983502,.00043738,36.8976,49.3803,314.9945,45.0449,0,U,46912,999,30947,.25608337E-3,.6645E-4,0
R2,2020-081J,2026-06-18T22:50:19.624128,15.25447511,.0009121,36.8985,50.4438,296.0768,63.9041,0,U,46913,999,31225,.23035E-3,.5874E-4,0
KSM1-B,2020-081K,2026-06-19T03:06:49.743360,15.24531097,.00067575,36.9023,56.6066,292.8727,67.1308,0,U,46914,999,31248,.23436529E-3,.5811E-4,0
TIANTONG-1 2,2020-082A,2026-06-19T07:50:02.814144,1.00268371,.00010343,0.7874,327.8957,109.9692,72.1068,0,U,46916,999,2067,0,-.362E-5,0
DRAGRACER 2 (AUGURY),2020-085AC,2026-06-19T01:37:48.040032,15.71204696,.00035747,97.5790,6.4227,241.1000,118.9904,0,U,46955,999,31216,.2381945E-3,.29981E-3,0
SENTINEL-6A,2020-086A,2026-06-19T06:31:07.078080,12.80929970,.00079281,66.0397,130.7229,270.2198,89.7908,0,U,46984,999,26059,.29054658E-4,-.54E-6,0
STARLINK-1777,2020-088A,2026-06-19T05:28:37.524576,15.70527379,.0001911,53.0443,147.9632,38.1052,322.0099,0,U,47122,999,30795,.12089135E-2,.153787E-2,0
