
CE-SAT IIB
1 46818U 20077F   26169.67024640  .00232456  25321-4  38456-3 0  9994
2 46818  97.1880 252.6781 0005184 161.3353 198.8118 16.03075584315524

COSMOS 2547 [GLONASS-K]
1 46805U 20075A   26169.82169226  .00000056  00000+0  00000+0 0  9996
2 46805  64.5997 192.4209 0009328 239.7819 120.1725  2.13100016 43945

DRAGRACER 2 (AUGURY)
1 46955U 20085AC  26170.06791713  .00029981  00000+0  23819-3 0  9998
2 46955  97.5790   6.4227 0003574 241.1000 118.9904 15.71204696312162

KSM1-A
1 46912U 20081H   26170.12596209  .00006645  00000+0  25608-3 0  9997
2 46912  36.8976  49.3803 0004373 314.9945  45.0449 15.25983502309471

KSM1-B
1 46914U 20081K   26170.12974240  .00005811  00000+0  23437-3 0  9996
2 46914  36.9023  56.6066 0006757 292.8727  67.1308 15.24531097312480

KSM1-C
1 46906U 20081B   26170.12174955  .00006719  00000+0  25288-3 0  9996
2 46906  36.8962  46.9985 0003312 260.0445  99.9930 15.26765276309460

KSM1-D
1 46907U 20081C   26170.12601623  .00005956  00000+0  23864-3 0  9994
2 46907  36.8969  56.0203 0005128 274.2977  85.7186 15.24742293309397

NAVSTAR 80 (USA 309)
1 46826U 20078A   26170.29971689  .00000026  00000+0  00000+0 0  9996
2 46826  53.9793 210.6926 0073605 207.3499 180.1928  2.00564859 41558

R2
1 46913U 20081J   26169.95161602  .00005874  00000+0  23035-3 0  9997
2 46913  36.8985  50.4438 0009121 296.0768  63.9041 15.25447511312250

RISAT-2BR2
1 46905U 20081A   26170.27657128  .00001635  00000+0  12940-3 0  9992
2 46905  36.8973 211.8710 0010878 182.6482 177.4203 15.01633261307784

SENTINEL-6A
1 46984U 20086A   26170.27160970 -.00000054  00000+0  29055-4 0  9999
2 46984  66.0397 130.7229 0007928 270.2198  89.7908 12.80929970260593

STARLINK-1777
1 47122U 20088A   26170.22821209  .00153787  00000+0  12089-2 0  9998
2 47122  53.0443 147.9632 0001911  38.1052 322.0099 15.70527379307955

STARLINK-1826
1 46723U 20073BF  26170.33335648  .00086354  00000+0  39796-3 0  9997
2 46723  53.0412  37.3763 0006119 179.1025 290.1221 15.82847102  6012

STARLINK-1828
1 46725U 20073BH  26170.10114883  .00072453  00000+0  57694-3 0  9992
2 46725  53.0470 100.4680 0006000  44.0999 316.0496 15.70538193313069

STARLINK-1830
1 46727U 20073BK  26169.92936410  .00110311  00000+0  61735-3 0  9997
2 46727  53.0353  45.9638 0003103 232.4545 127.6193 15.78535166313816

STARLINK-1835
1 46782U 20074AV  26170.09797236  .00104453  00000+0  57740-3 0  9991
2 46782  53.0392 134.8897 0001272 112.3594 247.7562 15.78836108313241

STARLINK-1882
1 46784U 20074AX  26170.33335648  .00426080  84407-4  10332-2 0  9991
2 46784  53.0390 128.7795 0003581 145.6339   0.4860 15.95783130  5968

STARLINK-1892
1 46743U 20074E   26170.21382773  .00118654  00000+0  92493-3 0  9990
2 46743  53.0370 158.1700 0010599  29.3173 330.8436 15.70790139312932

STARLINK-1893
1 46786U 20074AZ  26170.17723018  .00085951  00000+0  63825-3 0  9993
2 46786  53.0427 130.0783 0002406 128.6713 231.4520 15.72150855313324

STARLINK-1905
1 46746U 20074H   26170.33335648  .00431534  87480-4  98720-3 0  9991
2 46746  53.0318 136.7343 0002101 177.0697 221.4162 15.96854528  5968

STARLINK-1922
1 46753U 20074Q   26170.29614519  .01151678  73750-3  17346-2 0  9998
2 46753  53.0318 135.4117 0001790 131.8962 228.2222 16.04189955313258

STARLINK-1928
1 46758U 20074V   26170.28519176  .00991568  61930-3  85266-3 0  9998
2 46758  53.0292 133.8642 0002159 221.9051 138.1819 16.12871749313270

STARLINK-1931
1 46790U 20074BD  26169.95991339  .00702519  26316-3  86896-3 0  9996
2 46790  53.0295 135.6035 0002853 198.6253 161.4675 16.07275382313218

STARLINK-1942
1 46794U 20074BH  26170.26524525  .00095203  00000+0  71178-3 0  9995
2 46794  53.0375 161.4560 0001898  88.5513 271.5721 15.71948097312893

STARLINK-1944
1 46796U 20074BK  26170.33335648  .00444092  93393-4  95695-3 0  9997
2 46796  53.0314 122.8790 0002626 202.1524 311.0882 15.97928247  5823

TIANQI-6
1 46810U 20076D   26169.99283875  .00002774  00000+0  18226-3 0  9990
2 46810  35.0001  37.3823 0010216 191.0291 169.0196 15.07192437308854

TIANTONG-1 2
1 46916U 20082A   26170.32642146 -.00000362  00000+0  00000+0 0  9992
2 46916   0.7874 327.8957 0001034 109.9692  72.1068  1.00268371 20676

YAOGAN-30 08A
1 46807U 20076A   26170.17379795  .00002069  00000+0  15406-3 0  9999
2 46807  34.9941  79.1212 0000856 279.4962  80.5649 15.02702392308416

YAOGAN-30 08B
1 46808U 20076B   26170.21773888  .00002080  00000+0  15475-3 0  9995
2 46808  34.9945  78.6089 0000941 323.1978  36.8666 15.02719511308533

YAOGAN-30 08C
1 46809U 20076C   26170.19657249  .00001944  00000+0  14489-3 0  9997
2 46809  34.9962  78.6309 0005329  84.2893 275.8423 15.02687453308449
